[Satellite]
VERSION=1.1
NAME=COSMOS 1975
NICKNAME=COSMOS 1975
TLE1=1 19573U 88093A   19317.78247558  .00000434  00000-0  28697-4 0  9997
TLE2=2 19573  82.5219 214.0219 0014022 174.7569 185.3807 15.04765743692068
STATUS=0
